NORAD_CAT_ID,OBJECT_NAME,OBJECT_TYPE,EPOCH,MEAN_MOTION,ECCENTRICITY,INCLINATION,RA_OF_ASC_NODE,ARG_OF_PERICENTER,MEAN_ANOMALY,BSTAR,MEAN_MOTION_DOT,MEAN_MOTION_DDOT,TLE_LINE0,TLE_LINE1,TLE_LINE2,SEMIMAJOR_AXIS,PERIOD,APOGEE,PERIGEE,DECAYED
52095.0,STARLINK-3701,PAYLOAD,2023-12-11 17:45:29,15.08837047,0.0001448,53.2162,165.5265,101.2204,258.8951,9.4076e-06,-1.38e-06,0.0,0 STARLINK-3701,1 52095U 22029H   23345.73992269 -.00000138  00000-0  94076-5 0  9994,2 52095  53.2162 165.5265 0001448 101.2204 258.8951 15.08837047 97028,6917.889,95.438,540.756,538.753,0.0
52095.0,STARLINK-3701,PAYLOAD,2023-12-12 19:11:39,15.08841127,0.0001712,53.2161,160.7682,103.4348,256.6836,-1.9867e-05,-6.04e-06,0.0,0 STARLINK-3701,1 52095U 22029H   23346.79976298 -.00000604  00000-0 -19867-4 0  9998,2 52095  53.2161 160.7682 0001712 103.4348 256.6836 15.08841127 97183,6917.877,95.437,540.926,538.558,0.0
52095.0,STARLINK-3701,PAYLOAD,2023-12-13 19:02:26,15.0884169,0.0001368,53.216,156.3081,88.4893,271.6256,9.9357e-05,1.294e-05,0.0,0 STARLINK-3701,1 52095U 22029H   23347.79335969  .00001294  00000-0  99357-4 0  9999,2 52095  53.2160 156.3081 0001368  88.4893 271.6256 15.08841690 97335,6917.875,95.437,540.687,538.794,0.0
52095.0,STARLINK-3701,PAYLOAD,2023-12-14 18:53:13,15.08840688,0.0001471,53.2164,151.8504,81.1589,278.957,5.1709e-05,5.35e-06,0.0,0 STARLINK-3701,1 52095U 22029H   23348.78696332  .00000535  00000-0  51709-4 0  9999,2 52095  53.2164 151.8504 0001471  81.1589 278.9570 15.08840688 97487,6917.878,95.438,540.761,538.726,0.0
52095.0,STARLINK-3701,PAYLOAD,2023-12-15 17:08:37,15.08839326,0.0001543,53.2166,147.6913,77.8752,282.2413,1.7597e-06,-2.6e-06,0.0,0 STARLINK-3701,1 52095U 22029H   23349.71432644 -.00000260  00000-0  17597-5 0  9991,2 52095  53.2166 147.6913 0001543  77.8752 282.2413 15.08839326 97627,6917.882,95.438,540.815,538.68,0.0
52095.0,STARLINK-3701,PAYLOAD,2023-12-16 13:48:38,15.08842475,0.0001422,53.2164,143.8278,82.835,277.2804,6.3822e-05,7.28e-06,0.0,0 STARLINK-3701,1 52095U 22029H   23350.57544226  .00000728  00000-0  63822-4 0  9996,2 52095  53.2164 143.8278 0001422  82.8350 277.2804 15.08842475 97754,6917.873,95.437,540.722,538.754,0.0
52095.0,STARLINK-3701,PAYLOAD,2023-12-16 16:59:24,15.08842779,0.0001406,53.2163,143.2327,83.7701,276.3452,6.4446e-05,7.38e-06,0.0,0 STARLINK-3701,1 52095U 22029H   23350.70792181  .00000738  00000-0  64446-4 0  9990,2 52095  53.2163 143.2327 0001406  83.7701 276.3452 15.08842779 97772,6917.872,95.437,540.71,538.764,0.0
52095.0,STARLINK-3701,PAYLOAD,2023-12-17 13:39:25,15.08837761,0.0001391,53.2176,139.3608,91.4839,268.6312,1.2871e-05,-8.3e-07,0.0,0 STARLINK-3701,1 52095U 22029H   23351.56904675 -.00000083  00000-0  12871-4 0  9997,2 52095  53.2176 139.3608 0001391  91.4839 268.6312 15.08837761 97904,6917.887,95.438,540.715,538.79,0.0
52095.0,STARLINK-3701,PAYLOAD,2023-12-17 15:14:48,15.08836347,0.0001351,53.217,139.0638,90.2031,269.9116,3.4323e-06,-2.33e-06,0.0,0 STARLINK-3701,1 52095U 22029H   23351.63528791 -.00000233  00000-0  34323-5 0  9990,2 52095  53.2170 139.0638 0001351  90.2031 269.9116 15.08836347 97911,6917.892,95.438,540.691,538.822,0.0
52095.0,STARLINK-3701,PAYLOAD,2023-12-18 13:30:12,15.08842371,0.000139,53.2173,134.9017,99.547,260.5679,6.6672e-05,7.73e-06,0.0,0 STARLINK-3701,1 52095U 22029H   23352.56264192  .00000773  00000-0  66672-4 0  9994,2 52095  53.2173 134.9017 0001390  99.5470 260.5679 15.08842371 98052,6917.873,95.437,540.7,538.777,0.0
52095.0,STARLINK-3701,PAYLOAD,2023-12-18 15:05:35,15.08843174,0.0001385,53.2172,134.6047,97.3429,262.772,7.2944e-05,8.73e-06,0.0,0 STARLINK-3701,1 52095U 22029H   23352.62888131  .00000873  00000-0  72944-4 0  9996,2 52095  53.2172 134.6047 0001385  97.3429 262.7720 15.08843174 98069,6917.871,95.437,540.694,538.778,0.0
52095.0,STARLINK-3701,PAYLOAD,2023-12-19 14:56:22,15.0883838,0.000123,53.216,130.1422,96.4747,263.6385,3.5587e-05,2.79e-06,0.0,0 STARLINK-3701,1 52095U 22029H   23353.62248660  .00000279  00000-0  35587-4 0  9996,2 52095  53.2160 130.1422 0001230  96.4747 263.6385 15.08838380 98213,6917.885,95.438,540.601,538.899,0.0
52095.0,STARLINK-3701,PAYLOAD,2023-12-19 16:31:45,15.08840176,0.0001231,53.216,129.8447,96.0431,264.0701,4.8759e-05,4.88e-06,0.0,0 STARLINK-3701,1 52095U 22029H   23353.68872506  .00000488  00000-0  48759-4 0  9991,2 52095  53.2160 129.8447 0001231  96.0431 264.0701 15.08840176 98226,6917.88,95.438,540.596,538.893,0.0
52095.0,STARLINK-3701,PAYLOAD,2023-12-20 13:11:47,15.0883887,0.000116,53.2163,125.9781,98.2631,261.8492,-6.5545e-05,-1.331e-05,0.0,0 STARLINK-3701,1 52095U 22029H   23354.54985186 -.00001331  00000-0 -65545-4 0  9998,2 52095  53.2163 125.9781 0001160  98.2631 261.8492 15.08838870 98358,6917.884,95.438,540.551,538.946,0.0
52095.0,STARLINK-3701,PAYLOAD,2023-12-20 16:22:33,15.08842158,0.000131,53.217,125.3827,77.2017,282.9121,1.0657e-05,-1.18e-06,0.0,0 STARLINK-3701,1 52095U 22029H   23354.68232792 -.00000118  00000-0  10657-4 0  9996,2 52095  53.2170 125.3827 0001310  77.2017 282.9121 15.08842158 98372,6917.874,95.437,540.645,538.833,0.0
52095.0,STARLINK-3701,PAYLOAD,2023-12-21 14:37:57,15.08841518,0.0001366,53.2168,121.2218,68.2845,291.8292,6.8713e-05,8.06e-06,0.0,0 STARLINK-3701,1 52095U 22029H   23355.60969057  .00000806  00000-0  68713-4 0  9999,2 52095  53.2168 121.2218 0001366  68.2845 291.8292 15.08841518 98511,6917.876,95.437,540.686,538.796,0.0
52095.0,STARLINK-3701,PAYLOAD,2023-12-21 16:13:20,15.08839906,0.0001277,53.2173,120.9235,73.9072,286.206,0.0001701,2.42e-05,0.0,0 STARLINK-3701,1 52095U 22029H   23355.67592820  .00002420  00000-0  17010-3 0  9993,2 52095  53.2173 120.9235 0001277  73.9072 286.2060 15.08839906 98528,6917.881,95.438,540.629,538.862,0.0
52095.0,STARLINK-3701,PAYLOAD,2023-12-22 14:28:44,15.08842448,0.0001596,53.2172,116.7604,64.685,295.4308,8.3014e-05,1.033e-05,0.0,0 STARLINK-3701,1 52095U 22029H   23356.60329113  .00001033  00000-0  83014-4 0  9997,2 52095  53.2172 116.7604 0001596  64.6850 295.4308 15.08842448 98662,6917.873,95.437,540.842,538.634,0.0
52095.0,STARLINK-3701,PAYLOAD,2023-12-23 14:19:31,15.08847179,0.0001819,53.217,112.3031,58.4321,301.6849,5.6323e-05,6.09e-06,0.0,0 STARLINK-3701,1 52095U 22029H   23357.59688870  .00000609  00000-0  56323-4 0  9995,2 52095  53.2170 112.3031 0001819  58.4321 301.6849 15.08847179 98811,6917.858,95.437,540.982,538.465,0.0
52095.0,STARLINK-3701,PAYLOAD,2023-12-24 10:59:32,15.08845432,0.0001395,53.2188,108.441,77.4653,282.6495,-4.2405e-05,-9.63e-06,0.0,0 STARLINK-3701,1 52095U 22029H   23358.45801058 -.00000963  00000-0 -42405-4 0  9997,2 52095  53.2188 108.4410 0001395  77.4653 282.6495 15.08845432 98944,6917.864,95.437,540.694,538.764,0.0
52095.0,STARLINK-3701,PAYLOAD,2023-12-24 12:34:55,15.0885298,0.0001299,53.2185,108.1438,92.6587,267.4554,-0.00013589,-2.451e-05,0.0,0 STARLINK-3701,1 52095U 22029H   23358.52424893 -.00002451  00000-0 -13589-3 0  9997,2 52095  53.2185 108.1438 0001299  92.6587 267.4554 15.08852980 98950,6917.841,95.437,540.604,538.807,0.0
52095.0,STARLINK-3701,PAYLOAD,2023-12-24 17:21:04,15.08843629,0.0001429,53.2171,107.2403,90.8592,269.2564,8.1573e-05,1.011e-05,0.0,0 STARLINK-3701,1 52095U 22029H   23358.72296550  .00001011  00000-0  81573-4 0  9994,2 52095  53.2171 107.2403 0001429  90.8592 269.2564 15.08843629 98982,6917.869,95.437,540.723,538.746,0.0
52095.0,STARLINK-3701,PAYLOAD,2023-12-25 12:25:42,15.08838138,0.0001341,53.217,103.6775,66.124,293.9893,-3.6838e-05,-8.74e-06,0.0,0 STARLINK-3701,1 52095U 22029H   23359.51785396 -.00000874  00000-0 -36838-4 0  9995,2 52095  53.2170 103.6775 0001341  66.1240 293.9893 15.08838138 99105,6917.886,95.438,540.679,538.823,0.0
52095.0,STARLINK-3701,PAYLOAD,2023-12-25 14:01:05,15.08843007,0.0001235,53.2174,103.3764,95.8612,264.2521,-3.8893e-05,-9.07e-06,0.0,0 STARLINK-3701,1 52095U 22029H   23359.58408914 -.00000907  00000-0 -38893-4 0  9990,2 52095  53.2174 103.3764 0001235  95.8612 264.2521 15.08843007 99119,6917.871,95.437,540.591,538.882,0.0
52095.0,STARLINK-3701,PAYLOAD,2023-12-26 12:16:29,15.08842877,0.0001201,53.2166,99.2177,75.5056,284.6069,-5.2573e-05,-1.125e-05,0.0,0 STARLINK-3701,1 52095U 22029H   23360.51145457 -.00001125  00000-0 -52573-4 0  9999,2 52095  53.2166  99.2177 0001201  75.5056 284.6069 15.08842877 99253,6917.872,95.437,540.567,538.906,0.0
52095.0,STARLINK-3701,PAYLOAD,2023-12-27 12:07:16,15.08840683,0.000127,53.2166,94.7566,88.7633,271.3504,5.2816e-05,5.53e-06,0.0,0 STARLINK-3701,1 52095U 22029H   23361.50505726  .00000553  00000-0  52816-4 0  9990,2 52095  53.2166  94.7566 0001270  88.7633 271.3504 15.08840683 99405,6917.878,95.438,540.622,538.865,0.0
52095.0,STARLINK-3701,PAYLOAD,2023-12-28 13:33:28,15.08809693,0.0001441,53.2168,89.9993,86.3962,273.7195,0.00053046,8.157e-05,0.0,0 STARLINK-3701,1 52095U 22029H   23362.56490870  .00008157  00000-0  53046-3 0  9993,2 52095  53.2168  89.9993 0001441  86.3962 273.7195 15.08809693 99561,6917.973,95.439,540.835,538.841,0.0
52095.0,STARLINK-3701,PAYLOAD,2023-12-29 11:48:51,15.08840353,0.0001456,53.2168,85.8357,73.4639,286.6513,7.6176e-05,9.25e-06,0.0,0 STARLINK-3701,1 52095U 22029H   23363.49226208  .00000925  00000-0  76176-4 0  9993,2 52095  53.2168  85.8357 0001456  73.4639 286.6513 15.08840353 99705,6917.879,95.438,540.752,538.737,0.0
52095.0,STARLINK-3701,PAYLOAD,2023-12-29 13:24:14,15.08841623,0.0001533,53.2172,85.5386,67.9487,292.1668,9.1492e-05,1.168e-05,0.0,0 STARLINK-3701,1 52095U 22029H   23363.55850117  .00001168  00000-0  91492-4 0  9990,2 52095  53.2172  85.5386 0001533  67.9487 292.1668 15.08841623 99719,6917.875,95.437,540.801,538.68,0.0
52095.0,STARLINK-3701,PAYLOAD,2023-12-30 11:39:38,15.08847497,0.0001461,53.2169,81.3758,74.0074,286.1079,7.1256e-05,8.46e-06,0.0,0 STARLINK-3701,1 52095U 22029H   23364.48585742  .00000846  00000-0  71256-4 0  9990,2 52095  53.2169  81.3758 0001461  74.0074 286.1079 15.08847497 99852,6917.857,95.437,540.733,538.712,0.0
